{
"type": "FeatureCollection",
"name": "YOSHI",
"crs": { "type": "name", "properties": { "name": "urn:ogc:def:crs:OGC:1.3:CRS84" } },
"features": [
{"type":"Feature","properties":{"id":1,"elemento":"Y","tipo":"letra","texto":"YOSHI ♥"},"geometry":{"type":"Polygon","coordinates":[[[-72.99649581576827,5.073594206020464],[-73.01980858976826,5.049851306020464],[-72.97404220276826,4.975294778020464],[-73.057452695768262,5.011512658020464],[-73.080818613768272,4.987715634020463],[-72.944192253768264,4.929362120020464],[-72.867642537768262,4.863514455020463],[-72.847196782768265,4.887015671020464],[-72.923381933768269,4.952106164020464],[-72.99649581576827,5.073594206020464]]]}},
{"type":"Feature","properties":{"id":2,"elemento":"O","tipo":"letra","texto":"YOSHI ♥"},"geometry":{"type":"Polygon","coordinates":[[[-72.993902395002564,5.156787236169017],[-73.005285396002563,5.133057657169017],[-72.999471455002563,5.102245792169017],[-72.977320406002562,5.066291252169017],[-72.939679378002566,5.027311679169017],[-72.896612077002573,4.994423962169018],[-72.857862546002565,4.976460086169017],[-72.825704144002572,4.974171035169017],[-72.802273581002567,4.988133661169017],[-72.791619005002573,5.013280162169017],[-72.797686599002574,5.044659971169017],[-72.819548029002561,5.080065963169017],[-72.856377844002566,5.117504702169017],[-72.898860326002563,5.149033802169018],[-72.937366061002564,5.166438365169017],[-72.96980414900257,5.169267175169018],[-72.993902395002564,5.156787236169017]],[[-72.959384666002563,5.126407992169018],[-72.94678449100256,5.131819782169017],[-72.928359543002571,5.127979173169018],[-72.905100242002561,5.115299067169017],[-72.877966825002574,5.094129677169017],[-72.853571012002561,5.070208424169017],[-72.838209285002563,5.048997008169017],[-72.832444603002571,5.031449288169017],[-72.836791310002567,5.018512904169017],[-72.849212227002567,5.012605433169017],[-72.867567527002564,5.016260263169017],[-72.890899925002572,5.029104029169017],[-72.918142461002574,5.050630333169017],[-72.942865109002568,5.075100114169017],[-72.958319725002568,5.096492611169017],[-72.963988727002572,5.113882736169018],[-72.959384666002563,5.126407992169018]]]}},
{"type":"Feature","properties":{"id":3,"elemento":"S","tipo":"letra","texto":"YOSHI ♥"},"geometry":{"type":"Polygon","coordinates":[[[-72.930912812923353,5.220679796524188],[-72.890804895923353,5.184185718524188],[-72.890259382923347,5.196720433524188],[-72.888134132923355,5.207494108524188],[-72.88456131992335,5.216412991524188],[-72.879556872923345,5.223346316524188],[-72.871759964923356,5.229124964524188],[-72.863539582923352,5.230701506524188],[-72.854746344923356,5.228064200524188],[-72.845109697923348,5.221154065524188],[-72.838986922923354,5.214455597524188],[-72.835747271923353,5.207968098524188],[-72.835269143923355,5.200824858524189],[-72.837349960923348,5.192085729524188],[-72.842118718923345,5.178794664524188],[-72.845714745923345,5.159127869524188],[-72.842074342923354,5.140606664524189],[-72.830694268923352,5.121704050524188],[-72.810962581923349,5.100871686524188],[-72.781671140923351,5.078174140524188],[-72.756500935923356,5.067260134524188],[-72.73519274792335,5.068135347524188],[-72.717448096923349,5.080723920524188],[-72.710764373923354,5.090181974524188],[-72.70575307092335,5.101209726524188],[-72.70235211292335,5.113706322524188],[-72.700580080923345,5.127643679524188],[-72.741262441923354,5.164051694524188],[-72.740466348923349,5.148152764524188],[-72.741717620923353,5.134580787524188],[-72.745113518923347,5.123429308524188],[-72.750670303923343,5.114718391524188],[-72.757945239923345,5.109207753524188],[-72.766287774923356,5.107883500524188],[-72.775446760923344,5.110730678524188],[-72.785083548923353,5.117647356524188],[-72.792291683923352,5.125409396524188],[-72.796270822923347,5.132703374524188],[-72.797157812923345,5.140869962524188],[-72.795087733923353,5.151246171524188],[-72.791184833923353,5.163813184524188],[-72.788520933923351,5.182295430524188],[-72.792654488923347,5.200370229524188],[-72.80388056592335,5.218729937524188],[-72.822470602923346,5.238127504524188],[-72.849156709923349,5.258176667524189],[-72.873382321923344,5.268405341524188],[-72.894388658923347,5.268633002524188],[-72.911376193923346,5.258594497524189],[-72.917708620923349,5.251034380524188],[-72.923051897923344,5.242218003524188],[-72.927441557923345,5.232111367524188],[-72.930912812923353,5.220679796524188]]]}},
{"type":"Feature","properties":{"id":4,"elemento":"H","tipo":"letra","texto":"YOSHI ♥"},"geometry":{"type":"Polygon","coordinates":[[[-72.781976172854712,5.385859925392532],[-72.803287165854712,5.364155740392532],[-72.730405794854704,5.297020354392533],[-72.761363226854712,5.263985949392533],[-72.834731065854712,5.332131693392532],[-72.856042058854712,5.310427507392532],[-72.662637823854709,5.129795807392533],[-72.642192067854708,5.153297024392533],[-72.723812757854702,5.229108206392532],[-72.693104305854703,5.262659724392533],[-72.612024805854702,5.187972551392533],[-72.591579049854715,5.211473767392532],[-72.781976172854712,5.385859925392532]]]}},
{"type":"Feature","properties":{"id":5,"elemento":"I","tipo":"letra","texto":"YOSHI ♥"},"geometry":{"type":"Polygon","coordinates":[[[-72.744148254638475,5.43515870176862],[-72.765459247638475,5.413454516768621],[-72.570344496638469,5.229270206768621],[-72.549898740638469,5.252771422768621],[-72.744148254638475,5.43515870176862]]]}},
{"type":"Feature","properties":{"id":6,"elemento":"CORAZON","tipo":"simbolo","texto":"YOSHI ♥"},"geometry":{"type":"Polygon","coordinates":[[[-72.589194099369081,5.531246734634562],[-72.591396419369076,5.513476194634562],[-72.575492704369083,5.482941329634562],[-72.56632088536908,5.470550585634562],[-72.558949072369089,5.462103916634562],[-72.559124399369082,5.461919715634561],[-72.581629893369083,5.478260764634562],[-72.602041106369086,5.489442474634561],[-72.619220803369075,5.493469364634562],[-72.629937244369088,5.489748577634562],[-72.632839429369085,5.471810715634562],[-72.618361464369087,5.441458061634561],[-72.608834843369081,5.429498062634561],[-72.599114720369087,5.419119877634562],[-72.563428663369081,5.390072570634562],[-72.523684291369079,5.368735723634562],[-72.410382166369075,5.318049733634561],[-72.41005924836908,5.318420908634562],[-72.471543751369083,5.440408830634562],[-72.492296525369085,5.474260248634562],[-72.518418198369076,5.503920983634561],[-72.54619107536908,5.525065647634562],[-72.573751368369088,5.535134747634562],[-72.582922819369088,5.534669557634562],[-72.589194099369081,5.531246734634562]]]}}
]
}
